STARLINK-30144          
1 56835U 23079N   26077.62315530  .00013476  00000+0  50104-3 0  9998
2 56835  42.9969  53.2539 0001017 216.5425 143.5357 15.27399943154290
STARLINK-30142          
1 56836U 23079P   26077.63035901 -.00000627  00000+0 -13276-4 0  9997
2 56836  43.0005  53.3108 0000676 264.7187  95.3587 15.27569116154297
STARLINK-30133          
1 56837U 23079Q   26077.63407380  .00001286  00000+0  57615-4 0  9997
2 56837  42.9999  55.8832 0001185 278.1213  81.9504 15.26744322154264
STARLINK-30123          
1 56838U 23079R   26077.43497856  .00001606  00000+0  67884-4 0  9998
2 56838  43.0050 344.5478 0001504 283.1703  76.8981 15.27574545155086
STARLINK-30076          
1 56839U 23079S   26077.58334491 -.00024323  00000+0 -89942-3 0  9991
2 56839  43.0018  56.6752 0001804 274.5676 312.5929 15.26762366  5785
STARLINK-30073          
1 56840U 23079T   26077.58334491 -.00014257  00000+0 -50984-3 0  9992
2 56840  43.0017 242.1467 0001734 265.9677  99.7246 15.27559961  5892
STARLINK-30078          
1 56841U 23079U   26076.96255235  .00004947  00000+0  18929-3 0  9998
2 56841  43.0015  12.6423 0001519 274.0005  86.0673 15.27563350154716
STARLINK-30135          
1 56842U 23079V   26077.62600631  .00001539  00000+0  67000-4 0  9996
2 56842  42.9998  56.5969 0001109 265.2394  94.8331 15.26752783154251
STARLINK-30137          
1 56843U 23079W   26076.94502471  .00002109  00000+0  88289-4 0  9990
2 56843  42.9987  60.0816 0001450 246.4181 113.6518 15.26740277154156
STARLINK-30136          
1 56844U 23079X   26077.58334491  .00000920  00000+0  42984-4 0  9998
2 56844  43.0006  56.7609 0001969 274.5937 239.0341 15.27565326  5781
STARLINK-6206           
1 56876U 23083A   26077.58334491  .00002999  00000+0  19870-3 0  9993
2 56876  43.0007  33.6961 0002000 261.5407 163.1879 15.09221437  5771
STARLINK-6209           
1 56877U 23083B   26077.58334491  .00003053  00000+0  19194-3 0  9995
2 56877  43.0019  33.4872 0001383 258.2795 252.5620 15.11122409  5689
STARLINK-6182           
1 56878U 23083C   26077.58334491  .00004956  00000+0  31468-3 0  9997
2 56878  43.0004  33.6530 0001813 276.1180 166.6815 15.09786251  5782
STARLINK-5707           
1 56879U 23083D   26077.58334491  .00002161  00000+0  15334-3 0  9998
2 56879  43.0003  33.7110 0002282 259.4357 158.0015 15.07618332  5585
STARLINK-6177           
1 56880U 23083E   26077.58334491  .00001917  00000+0  12811-3 0  9995
2 56880  43.0014  33.3686 0001058 313.1190 249.4411 15.10315191  5627
STARLINK-5853           
1 56881U 23083F   26077.58334491  .00003528  00000+0  23323-3 0  9996
2 56881  43.0007  33.6195 0001765 280.6493 175.2691 15.08924911  5783
