[{"OBJECT_NAME":"STARLINK-30144","OBJECT_ID":"2023-079N","EPOCH":"2026-03-18T14:57:20.617920","MEAN_MOTION":15.27399943,"ECCENTRICITY":0.00010179,"INCLINATION":42.9969,"RA_OF_ASC_NODE":53.2539,"ARG_OF_PERICENTER":216.5425,"MEAN_ANOMALY":143.5357,"EPHEMERIS_TYPE":0,"CLASSIFICATION_TYPE":"U","NORAD_CAT_ID":56835,"ELEMENT_SET_NO":999,"REV_AT_EPOCH":15429,"BSTAR":0.00050103593,"MEAN_MOTION_DOT":0.00013476,"MEAN_MOTION_DDOT":0},{"OBJECT_NAME":"STARLINK-30142","OBJECT_ID":"2023-079P","EPOCH":"2026-03-18T15:07:43.018464","MEAN_MOTION":15.27569116,"ECCENTRICITY":6.76e-5,"INCLINATION":43.0005,"RA_OF_ASC_NODE":53.3108,"ARG_OF_PERICENTER":264.7187,"MEAN_ANOMALY":95.3587,"EPHEMERIS_TYPE":0,"CLASSIFICATION_TYPE":"U","NORAD_CAT_ID":56836,"ELEMENT_SET_NO":999,"REV_AT_EPOCH":15429,"BSTAR":-1.3275863e-5,"MEAN_MOTION_DOT":-6.27e-6,"MEAN_MOTION_DDOT":0},{"OBJECT_NAME":"STARLINK-30133","OBJECT_ID":"2023-079Q","EPOCH":"2026-03-18T15:13:03.976320","MEAN_MOTION":15.26744322,"ECCENTRICITY":0.00011851,"INCLINATION":42.9999,"RA_OF_ASC_NODE":55.8832,"ARG_OF_PERICENTER":278.1213,"MEAN_ANOMALY":81.9504,"EPHEMERIS_TYPE":0,"CLASSIFICATION_TYPE":"U","NORAD_CAT_ID":56837,"ELEMENT_SET_NO":999,"REV_AT_EPOCH":15426,"BSTAR":5.7615128e-5,"MEAN_MOTION_DOT":1.286e-5,"MEAN_MOTION_DDOT":0},{"OBJECT_NAME":"STARLINK-30123","OBJECT_ID":"2023-079R","EPOCH":"2026-03-18T10:26:22.147584","MEAN_MOTION":15.27574545,"ECCENTRICITY":0.00015048,"INCLINATION":43.005,"RA_OF_ASC_NODE":344.5478,"ARG_OF_PERICENTER":283.1703,"MEAN_ANOMALY":76.8981,"EPHEMERIS_TYPE":0,"CLASSIFICATION_TYPE":"U","NORAD_CAT_ID":56838,"ELEMENT_SET_NO":999,"REV_AT_EPOCH":15508,"BSTAR":6.7884019e-5,"MEAN_MOTION_DOT":1.606e-5,"MEAN_MOTION_DDOT":0},{"OBJECT_NAME":"STARLINK-30076","OBJECT_ID":"2023-079S","EPOCH":"2026-03-18T14:00:01.000224","MEAN_MOTION":15.26762366,"ECCENTRICITY":0.00018041,"INCLINATION":43.0018,"RA_OF_ASC_NODE":56.6752,"ARG_OF_PERICENTER":274.5676,"MEAN_ANOMALY":312.5929,"EPHEMERIS_TYPE":0,"CLASSIFICATION_TYPE":"U","NORAD_CAT_ID":56839,"ELEMENT_SET_NO":999,"REV_AT_EPOCH":578,"BSTAR":-0.00089942279,"MEAN_MOTION_DOT":-0.00024323,"MEAN_MOTION_DDOT":0},{"OBJECT_NAME":"STARLINK-30073","OBJECT_ID":"2023-079T","EPOCH":"2026-03-18T14:00:01.000224","MEAN_MOTION":15.27559961,"ECCENTRICITY":0.00017345,"INCLINATION":43.0017,"RA_OF_ASC_NODE":242.1467,"ARG_OF_PERICENTER":265.9677,"MEAN_ANOMALY":99.7246,"EPHEMERIS_TYPE":0,"CLASSIFICATION_TYPE":"U","NORAD_CAT_ID":56840,"ELEMENT_SET_NO":999,"REV_AT_EPOCH":589,"BSTAR":-0.00050983938,"MEAN_MOTION_DOT":-0.00014257,"MEAN_MOTION_DDOT":0},{"OBJECT_NAME":"STARLINK-30078","OBJECT_ID":"2023-079U","EPOCH":"2026-03-17T23:06:04.523040","MEAN_MOTION":15.2756335,"ECCENTRICITY":0.00015195,"INCLINATION":43.0015,"RA_OF_ASC_NODE":12.6423,"ARG_OF_PERICENTER":274.0005,"MEAN_ANOMALY":86.0673,"EPHEMERIS_TYPE":0,"CLASSIFICATION_TYPE":"U","NORAD_CAT_ID":56841,"ELEMENT_SET_NO":999,"REV_AT_EPOCH":15471,"BSTAR":0.00018928513,"MEAN_MOTION_DOT":4.947e-5,"MEAN_MOTION_DDOT":0},{"OBJECT_NAME":"STARLINK-30135","OBJECT_ID":"2023-079V","EPOCH":"2026-03-18T15:01:26.945184","MEAN_MOTION":15.26752783,"ECCENTRICITY":0.00011099,"INCLINATION":42.9998,"RA_OF_ASC_NODE":56.5969,"ARG_OF_PERICENTER":265.2394,"MEAN_ANOMALY":94.8331,"EPHEMERIS_TYPE":0,"CLASSIFICATION_TYPE":"U","NORAD_CAT_ID":56842,"ELEMENT_SET_NO":999,"REV_AT_EPOCH":15425,"BSTAR":6.6999611e-5,"MEAN_MOTION_DOT":1.539e-5,"MEAN_MOTION_DDOT":0},{"OBJECT_NAME":"STARLINK-30137","OBJECT_ID":"2023-079W","EPOCH":"2026-03-17T22:40:50.134944","MEAN_MOTION":15.26740277,"ECCENTRICITY":0.00014506,"INCLINATION":42.9987,"RA_OF_ASC_NODE":60.0816,"ARG_OF_PERICENTER":246.4181,"MEAN_ANOMALY":113.6518,"EPHEMERIS_TYPE":0,"CLASSIFICATION_TYPE":"U","NORAD_CAT_ID":56843,"ELEMENT_SET_NO":999,"REV_AT_EPOCH":15415,"BSTAR":8.828889e-5,"MEAN_MOTION_DOT":2.109e-5,"MEAN_MOTION_DDOT":0},{"OBJECT_NAME":"STARLINK-30136","OBJECT_ID":"2023-079X","EPOCH":"2026-03-18T14:00:01.000224","MEAN_MOTION":15.27565326,"ECCENTRICITY":0.00019699,"INCLINATION":43.0006,"RA_OF_ASC_NODE":56.7609,"ARG_OF_PERICENTER":274.5937,"MEAN_ANOMALY":239.0341,"EPHEMERIS_TYPE":0,"CLASSIFICATION_TYPE":"U","NORAD_CAT_ID":56844,"ELEMENT_SET_NO":999,"REV_AT_EPOCH":578,"BSTAR":4.2983728e-5,"MEAN_MOTION_DOT":9.2e-6,"MEAN_MOTION_DDOT":0},{"OBJECT_NAME":"STARLINK-6206","OBJECT_ID":"2023-083A","EPOCH":"2026-03-18T14:00:01.000224","MEAN_MOTION":15.09221437,"ECCENTRICITY":0.00020004,"INCLINATION":43.0007,"RA_OF_ASC_NODE":33.6961,"ARG_OF_PERICENTER":261.5407,"MEAN_ANOMALY":163.1879,"EPHEMERIS_TYPE":0,"CLASSIFICATION_TYPE":"U","NORAD_CAT_ID":56876,"ELEMENT_SET_NO":999,"REV_AT_EPOCH":577,"BSTAR":0.00019870299,"MEAN_MOTION_DOT":2.999e-5,"MEAN_MOTION_DDOT":0},{"OBJECT_NAME":"STARLINK-6209","OBJECT_ID":"2023-083B","EPOCH":"2026-03-18T14:00:01.000224","MEAN_MOTION":15.11122409,"ECCENTRICITY":0.00013837,"INCLINATION":43.0019,"RA_OF_ASC_NODE":33.4872,"ARG_OF_PERICENTER":258.2795,"MEAN_ANOMALY":252.562,"EPHEMERIS_TYPE":0,"CLASSIFICATION_TYPE":"U","NORAD_CAT_ID":56877,"ELEMENT_SET_NO":999,"REV_AT_EPOCH":568,"BSTAR":0.00019194439,"MEAN_MOTION_DOT":3.053e-5,"MEAN_MOTION_DDOT":0},{"OBJECT_NAME":"STARLINK-6182","OBJECT_ID":"2023-083C","EPOCH":"2026-03-18T14:00:01.000224","MEAN_MOTION":15.09786251,"ECCENTRICITY":0.00018131,"INCLINATION":43.0004,"RA_OF_ASC_NODE":33.653,"ARG_OF_PERICENTER":276.118,"MEAN_ANOMALY":166.6815,"EPHEMERIS_TYPE":0,"CLASSIFICATION_TYPE":"U","NORAD_CAT_ID":56878,"ELEMENT_SET_NO":999,"REV_AT_EPOCH":578,"BSTAR":0.00031468454,"MEAN_MOTION_DOT":4.956e-5,"MEAN_MOTION_DDOT":0},{"OBJECT_NAME":"STARLINK-5707","OBJECT_ID":"2023-083D","EPOCH":"2026-03-18T14:00:01.000224","MEAN_MOTION":15.07618332,"ECCENTRICITY":0.00022821,"INCLINATION":43.0003,"RA_OF_ASC_NODE":33.711,"ARG_OF_PERICENTER":259.4357,"MEAN_ANOMALY":158.0015,"EPHEMERIS_TYPE":0,"CLASSIFICATION_TYPE":"U","NORAD_CAT_ID":56879,"ELEMENT_SET_NO":999,"REV_AT_EPOCH":558,"BSTAR":0.00015334093,"MEAN_MOTION_DOT":2.161e-5,"MEAN_MOTION_DDOT":0},{"OBJECT_NAME":"STARLINK-6177","OBJECT_ID":"2023-083E","EPOCH":"2026-03-18T14:00:01.000224","MEAN_MOTION":15.10315191,"ECCENTRICITY":0.00010583,"INCLINATION":43.0014,"RA_OF_ASC_NODE":33.3686,"ARG_OF_PERICENTER":313.119,"MEAN_ANOMALY":249.4411,"EPHEMERIS_TYPE":0,"CLASSIFICATION_TYPE":"U","NORAD_CAT_ID":56880,"ELEMENT_SET_NO":999,"REV_AT_EPOCH":562,"BSTAR":0.00012811478,"MEAN_MOTION_DOT":1.917e-5,"MEAN_MOTION_DDOT":0},{"OBJECT_NAME":"STARLINK-5853","OBJECT_ID":"2023-083F","EPOCH":"2026-03-18T14:00:01.000224","MEAN_MOTION":15.08924911,"ECCENTRICITY":0.00017658,"INCLINATION":43.0007,"RA_OF_ASC_NODE":33.6195,"ARG_OF_PERICENTER":280.6493,"MEAN_ANOMALY":175.2691,"EPHEMERIS_TYPE":0,"CLASSIFICATION_TYPE":"U","NORAD_CAT_ID":56881,"ELEMENT_SET_NO":999,"REV_AT_EPOCH":578,"BSTAR":0.00023323148,"MEAN_MOTION_DOT":3.528e-5,"MEAN_MOTION_DDOT":0}]
